[{"OBJECT_NAME":"COSMOS 2503","OBJECT_ID":"2015-009A","EPOCH":"2026-03-09T16:42:37.703808","MEAN_MOTION":15.06275973,"ECCENTRICITY":0.00153206,"INCLINATION":97.8437,"RA_OF_ASC_NODE":123.7175,"ARG_OF_PERICENTER":225.745,"MEAN_ANOMALY":134.252,"EPHEMERIS_TYPE":0,"CLASSIFICATION_TYPE":"U","NORAD_CAT_ID":40420,"ELEMENT_SET_NO":999,"REV_AT_EPOCH":60395,"BSTAR":0.00019589832,"MEAN_MOTION_DOT":2.817e-5,"MEAN_MOTION_DDOT":0},{"OBJECT_NAME":"STARLINK-3545","OBJECT_ID":"2022-022D","EPOCH":"2026-03-09T07:18:15.157440","MEAN_MOTION":15.08856005,"ECCENTRICITY":0.00011808,"INCLINATION":53.2201,"RA_OF_ASC_NODE":20.7719,"ARG_OF_PERICENTER":82.2196,"MEAN_ANOMALY":277.893,"EPHEMERIS_TYPE":0,"CLASSIFICATION_TYPE":"U","NORAD_CAT_ID":51855,"ELEMENT_SET_NO":999,"REV_AT_EPOCH":22291,"BSTAR":0.0002050944,"MEAN_MOTION_DOT":2.979e-5,"MEAN_MOTION_DDOT":0}]
